NORAD_CAT_ID,OBJECT_NAME,OBJECT_TYPE,EPOCH,MEAN_MOTION,ECCENTRICITY,INCLINATION,RA_OF_ASC_NODE,ARG_OF_PERICENTER,MEAN_ANOMALY,BSTAR,MEAN_MOTION_DOT,MEAN_MOTION_DDOT,TLE_LINE0,TLE_LINE1,TLE_LINE2,SEMIMAJOR_AXIS,PERIOD,APOGEE,PERIGEE,DECAYED
51896.0,STARLINK-3593,PAYLOAD,2024-06-26 11:44:58,15.08838088,0.000127,53.2178,268.0182,100.4738,259.6398,7.9808e-05,9.82e-06,0.0,0 STARLINK-3593,1 51896U 22022AW  24178.48956653  .00000982  00000-0  79808-4 0  9990,2 51896  53.2178 268.0182 0001270 100.4738 259.6398 15.08838088129516,6917.886,95.438,540.63,538.873,0.0
51896.0,STARLINK-3593,PAYLOAD,2024-06-27 13:11:08,15.08840064,0.0001401,53.2174,263.2649,114.7327,245.3811,0.00012291,1.669e-05,0.0,0 STARLINK-3593,1 51896U 22022AW  24179.54940667  .00001669  00000-0  12291-3 0  9991,2 51896  53.2174 263.2649 0001401 114.7327 245.3811 15.08840064129671,6917.88,95.438,540.714,538.776,0.0
51896.0,STARLINK-3593,PAYLOAD,2024-06-28 13:01:55,15.08849692,0.0001264,53.216,258.8008,93.695,266.4186,0.00022404,3.28e-05,0.0,0 STARLINK-3593,1 51896U 22022AW  24180.54300288  .00003280  00000-0  22404-3 0  9990,2 51896  53.2160 258.8008 0001264  93.6950 266.4186 15.08849692129821,6917.851,95.437,540.59,538.841,0.0
51896.0,STARLINK-3593,PAYLOAD,2024-06-28 17:48:04,15.08853904,0.0001298,53.2163,257.905,97.1185,262.9954,0.00029234,4.369e-05,0.0,0 STARLINK-3593,1 51896U 22022AW  24180.74172016  .00004369  00000-0  29234-3 0  9995,2 51896  53.2163 257.9050 0001298  97.1185 262.9954 15.08853904129855,6917.838,95.437,540.601,538.805,0.0
51896.0,STARLINK-3593,PAYLOAD,2024-06-28 22:34:13,15.08860991,0.0001374,53.2166,257.0154,87.3499,272.7651,0.00042703,6.519e-05,0.0,0 STARLINK-3593,1 51896U 22022AW  24180.94043794  .00006519  00000-0  42703-3 0  9992,2 51896  53.2166 257.0154 0001374  87.3499 272.7651 15.08860991129888,6917.816,95.436,540.632,538.731,0.0
51896.0,STARLINK-3593,PAYLOAD,2024-06-29 04:55:46,15.08851957,0.0002487,53.2144,255.8251,93.697,266.4306,0.00029207,4.365e-05,0.0,0 STARLINK-3593,1 51896U 22022AW  24181.20540267  .00004365  00000-0  29207-3 0  9990,2 51896  53.2144 255.8251 0002487  93.6970 266.4306 15.08851957129922,6917.844,95.437,541.429,537.988,0.0
51896.0,STARLINK-3593,PAYLOAD,2024-06-29 11:17:19,15.08838704,0.0001357,53.2143,254.6375,101.7504,258.3641,2.4129e-05,9.6e-07,0.0,0 STARLINK-3593,1 51896U 22022AW  24181.47036504  .00000096  00000-0  24129-4 0  9999,2 51896  53.2143 254.6375 0001357 101.7504 258.3641 15.08838704129965,6917.884,95.438,540.688,538.811,0.0
51896.0,STARLINK-3593,PAYLOAD,2024-06-29 12:52:42,15.08840335,0.0001403,53.2148,254.3401,101.452,258.663,6.4202e-05,7.34e-06,0.0,0 STARLINK-3593,1 51896U 22022AW  24181.53660492  .00000734  00000-0  64202-4 0  9990,2 51896  53.2148 254.3401 0001403 101.4520 258.6630 15.08840335129979,6917.879,95.438,540.715,538.774,0.0
51896.0,STARLINK-3593,PAYLOAD,2024-06-30 14:18:52,15.08840309,0.0001523,53.2167,249.582,94.8483,265.2683,1.5076e-05,-4.8e-07,0.0,0 STARLINK-3593,1 51896U 22022AW  24182.59644600 -.00000048  00000-0  15076-4 0  9994,2 51896  53.2167 249.5820 0001523  94.8483 265.2683 15.08840309130130,6917.879,95.438,540.798,538.691,0.0
51896.0,STARLINK-3593,PAYLOAD,2024-07-01 14:09:39,15.08827896,0.0001634,53.2167,245.1225,98.6879,261.4299,-0.00022876,-3.926e-05,0.0,0 STARLINK-3593,1 51896U 22022AW  24183.59003626 -.00003926  00000-0 -22876-3 0  9996,2 51896  53.2167 245.1225 0001634  98.6879 261.4299 15.08827896130288,6917.917,95.438,540.913,538.652,0.0
51896.0,STARLINK-3593,PAYLOAD,2024-07-02 04:28:06,15.08858194,0.0001947,53.2152,242.4453,110.3052,249.8149,0.00026346,3.909e-05,0.0,0 STARLINK-3593,1 51896U 22022AW  24184.18618235  .00003909  00000-0  26346-3 0  9995,2 51896  53.2152 242.4453 0001947 110.3052 249.8149 15.08858194130376,6917.825,95.436,541.037,538.343,0.0
51896.0,STARLINK-3593,PAYLOAD,2024-07-02 10:49:40,15.08819452,0.0001357,53.2156,241.2566,89.7364,270.3783,-0.00030445,-5.127e-05,0.0,0 STARLINK-3593,1 51896U 22022AW  24184.45116225 -.00005127  00000-0 -30445-3 0  9998,2 51896  53.2156 241.2566 0001357  89.7364 270.3783 15.08819452130414,6917.943,95.439,540.747,538.869,0.0
51896.0,STARLINK-3593,PAYLOAD,2024-07-03 10:40:28,15.08815305,0.000137,53.2154,236.7966,90.6759,269.439,0.0001302,1.783e-05,0.0,0 STARLINK-3593,1 51896U 22022AW  24185.44477039  .00001783  00000-0  13020-3 0  9993,2 51896  53.2154 236.7966 0001370  90.6759 269.4390 15.08815305130561,6917.956,95.439,540.769,538.873,0.0
51896.0,STARLINK-3593,PAYLOAD,2024-07-03 20:12:46,15.08822804,0.0001399,53.2148,235.0116,89.8519,270.2633,0.00018986,2.734e-05,0.0,0 STARLINK-3593,1 51896U 22022AW  24185.84221047  .00002734  00000-0  18986-3 0  9996,2 51896  53.2148 235.0116 0001399  89.8519 270.2633 15.08822804130627,6917.933,95.439,540.766,538.83,0.0
51896.0,STARLINK-3593,PAYLOAD,2024-07-04 12:06:38,15.0884069,0.0001284,53.2149,232.0389,84.9886,275.1253,0.00066739,0.0001035,0.0,0 STARLINK-3593,1 51896U 22022AW  24186.50461480  .00010350  00000-0  66739-3 0  9999,2 51896  53.2149 232.0389 0001284  84.9886 275.1253 15.08840690130729,6917.878,95.438,540.632,538.855,0.0
51896.0,STARLINK-3593,PAYLOAD,2024-07-04 20:03:34,15.08847451,0.0001285,53.2148,230.5523,86.8579,273.256,0.00062056,9.604e-05,0.0,0 STARLINK-3593,1 51896U 22022AW  24186.83581363  .00009604  00000-0  62056-3 0  9996,2 51896  53.2148 230.5523 0001285  86.8579 273.2560 15.08847451130779,6917.858,95.437,540.612,538.834,0.0
51896.0,STARLINK-3593,PAYLOAD,2024-07-05 10:22:02,15.08843636,0.0001327,53.2147,227.8762,85.4912,274.6232,0.00026758,3.974e-05,0.0,0 STARLINK-3593,1 51896U 22022AW  24187.43197436  .00003974  00000-0  26758-3 0  9990,2 51896  53.2147 227.8762 0001327  85.4912 274.6232 15.08843636130867,6917.869,95.437,540.652,538.816,0.0
51896.0,STARLINK-3593,PAYLOAD,2024-07-05 19:54:21,15.08852902,0.0001319,53.2144,226.0917,83.1372,276.977,0.0004298,6.561e-05,0.0,0 STARLINK-3593,1 51896U 22022AW  24187.82941079  .00006561  00000-0  42980-3 0  9993,2 51896  53.2144 226.0917 0001319  83.1372 276.9770 15.08852902130928,6917.841,95.437,540.618,538.793,0.0
51896.0,STARLINK-3593,PAYLOAD,2024-07-06 11:48:12,15.08842523,0.0001289,53.2145,223.1167,86.1223,273.9916,9.268e-05,1.188e-05,0.0,0 STARLINK-3593,1 51896U 22022AW  24188.49181333  .00001188  00000-0  92680-4 0  9999,2 51896  53.2145 223.1167 0001289  86.1223 273.9916 15.08842523131027,6917.873,95.437,540.629,538.846,0.0
51896.0,STARLINK-3593,PAYLOAD,2024-07-06 19:45:08,15.08841561,0.0001466,53.2155,221.6297,93.87,266.246,7.5869e-05,9.2e-06,0.0,0 STARLINK-3593,1 51896U 22022AW  24188.82301382  .00000920  00000-0  75869-4 0  9997,2 51896  53.2155 221.6297 0001466  93.8700 266.2460 15.08841561131072,6917.876,95.437,540.755,538.726,0.0
51896.0,STARLINK-3593,PAYLOAD,2024-07-07 08:28:13,15.08840594,0.0001477,53.2155,219.2519,91.0622,269.0539,9.2144e-05,1.179e-05,0.0,0 STARLINK-3593,1 51896U 22022AW  24189.35293529  .00001179  00000-0  92144-4 0  9991,2 51896  53.2155 219.2519 0001477  91.0622 269.0539 15.08840594131159,6917.879,95.438,540.765,538.722,0.0
51896.0,STARLINK-3593,PAYLOAD,2024-07-08 11:29:46,15.08843634,0.0001475,53.2155,214.1968,89.8927,270.2234,0.00014447,2.012e-05,0.0,0 STARLINK-3593,1 51896U 22022AW  24190.47901391  .00002012  00000-0  14447-3 0  9995,2 51896  53.2155 214.1968 0001475  89.8927 270.2234 15.08843634131325,6917.869,95.437,540.755,538.714,0.0
51896.0,STARLINK-3593,PAYLOAD,2024-07-09 08:09:47,15.08837029,0.0001395,53.2163,210.3306,89.8143,270.3009,6.9328e-05,8.16e-06,0.0,0 STARLINK-3593,1 51896U 22022AW  24191.34013699  .00000816  00000-0  69328-4 0  9996,2 51896  53.2163 210.3306 0001395  89.8143 270.3009 15.08837029131455,6917.889,95.438,540.72,538.789,0.0
51896.0,STARLINK-3593,PAYLOAD,2024-07-10 08:00:35,15.08836611,0.0001346,53.2162,205.8695,86.719,273.3956,1.4893e-05,-5.1e-07,0.0,0 STARLINK-3593,1 51896U 22022AW  24192.33373933 -.00000051  00000-0  14893-4 0  9995,2 51896  53.2162 205.8695 0001346  86.7190 273.3956 15.08836611131605,6917.891,95.438,540.687,538.825,0.0
51896.0,STARLINK-3593,PAYLOAD,2024-07-11 04:40:36,15.08834206,0.0001271,53.2157,202.0039,85.6699,274.4439,5.4164e-05,5.74e-06,0.0,0 STARLINK-3593,1 51896U 22022AW  24193.19486216  .00000574  00000-0  54164-4 0  9993,2 51896  53.2157 202.0039 0001271  85.6699 274.4439 15.08834206131739,6917.898,95.438,540.642,538.884,0.0
51896.0,STARLINK-3593,PAYLOAD,2024-07-11 06:15:59,15.08834342,0.0001278,53.2158,201.7066,85.6651,274.4487,5.3255e-05,5.6e-06,0.0,0 STARLINK-3593,1 51896U 22022AW  24193.26110231  .00000560  00000-0  53255-4 0  9997,2 51896  53.2158 201.7066 0001278  85.6651 274.4487 15.08834342131746,6917.898,95.438,540.647,538.879,0.0
51896.0,STARLINK-3593,PAYLOAD,2024-07-11 17:23:41,15.0883721,0.000128,53.2157,199.625,85.1486,274.9652,7.2988e-05,8.74e-06,0.0,0 STARLINK-3593,1 51896U 22022AW  24193.72478139  .00000874  00000-0  72988-4 0  9994,2 51896  53.2157 199.6250 0001280  85.1486 274.9652 15.08837210131813,6917.889,95.438,540.639,538.868,0.0
51896.0,STARLINK-3593,PAYLOAD,2024-07-12 09:17:32,15.08840822,0.0001337,53.216,196.6524,91.4168,268.6978,0.00012975,1.778e-05,0.0,0 STARLINK-3593,1 51896U 22022AW  24194.38717980  .00001778  00000-0  12975-3 0  9990,2 51896  53.2160 196.6524 0001337  91.4168 268.6978 15.08840822131913,6917.878,95.438,540.668,538.818,0.0
51896.0,STARLINK-3593,PAYLOAD,2024-07-12 17:14:27,15.08844276,0.0001343,53.2161,195.1647,86.635,273.4796,0.00014661,2.046e-05,0.0,0 STARLINK-3593,1 51896U 22022AW  24194.71837784  .00002046  00000-0  14661-3 0  9995,2 51896  53.2161 195.1647 0001343  86.6350 273.4796 15.08844276131964,6917.867,95.437,540.661,538.803,0.0
51896.0,STARLINK-3593,PAYLOAD,2024-07-13 09:08:19,15.08842101,0.000144,53.2168,192.1892,85.4427,274.673,9.9117e-05,1.29e-05,0.0,0 STARLINK-3593,1 51896U 22022AW  24195.38078083  .00001290  00000-0  99117-4 0  9998,2 51896  53.2168 192.1892 0001440  85.4427 274.6730 15.08842101132068,6917.874,95.437,540.735,538.743,0.0
